0 COSMOS 1408 DEB
1 51260U 82092BCN 22067.57270989  .05808098  42105-1  23263-1 0  9997
2 51260  82.5985  11.4386 0009137 119.7634 240.4549 15.90472423  9449
0 COSMOS 1408 DEB
1 51261U 82092BCP 22089.50458058  .00773642  00000-0  11613-1 0  9994
2 51261  82.6189 351.3318 0031225 284.6738  75.1053 15.52147964 12734
0 COSMOS 1408 DEB
1 51262U 82092BCQ 22088.73570514  .00326902  00000-0  81060-2 0  9998
2 51262  82.4760 349.9499 0054114 303.4178  56.1897 15.37661535 12565
0 COSMOS 1408 DEB
1 51263U 82092BCR 22089.31330075  .00926555  00000-0  13611-1 0  9996
2 51263  82.5999 352.0868 0063810  16.8153 343.5192 15.50702681 12662
0 COSMOS 1408 DEB
1 51264U 82092BCS 22088.14737005  .00204375  00000-0  47835-2 0  9996
2 51264  82.5788 350.6232 0035064 276.2696  83.4557 15.40714894 12542
0 COSMOS 1408 DEB
1 51265U 82092BCT 22088.67190770  .00137521  00000-0  23284-2 0  9997
2 51265  82.5964 347.2800 0024408  72.8036 287.5885 15.50722951 12747
0 COSMOS 1408 DEB
1 51267U 82092BCV 22088.71029251  .00027545  00000-0  12888-2 0  9991
2 51267  82.5303 351.8149 0101017 295.4601  63.6206 15.15095363 14783
0 COSMOS 1408 DEB
1 51268U 82092BCW 22089.46337424  .00186850  00000-0  10025-1 0  9994
2 51268  82.6281 357.1286 0174527   1.6116 358.5632 15.02069022 12893
0 COSMOS 1408 DEB
1 51269U 82092BCX 22088.74809518  .00518669  00000-0  40769-2 0  9999
2 51269  82.5470 346.5340 0025179 206.2260 153.7729 15.69615904 12180
0 COSMOS 1408 DEB
1 51271U 82092BCZ 22088.71450266  .00020710  00000-0  52642-3 0  9990
2 51271  82.7039 350.2893 0030169  69.3659 291.0818 15.39004406 12086
0 COSMOS 1408 DEB
1 51272U 82092BDA 22088.75029941  .00043754  00000-0  14949-2 0  9997
2 51272  82.5938 350.3310 0031886 321.4762  38.4202 15.29606299 12911
0 COSMOS 1408 DEB
1 51275U 82092BDD 22081.24338608  .05282417  43221-1  12995-1 0  9997
2 51275  82.4262 354.2363 0021620 238.7950 121.1209 15.99730969 11553
0 COSMOS 1408 DEB
1 51276U 82092BDE 22088.72060148  .00159337  00000-0  42185-2 0  9990
2 51276  82.5801 349.8552 0033970 342.8023  17.2067 15.37163593 12624
0 ISS DEB
1 51277U 98067SY  22088.94911902  .00721730  00000-0  39091-2 0  9991
2 51277  51.6337   3.9118 0011272 195.2737 164.7925 15.77456230 10991
0 ISS DEB
1 51278U 98067SZ  22072.21272844  .20823036  12210-4  25218-2 0  9990
2 51278  51.6180  85.5929 0004400 207.0686 153.0109 16.35539946  8403
0 ISS DEB
1 51279U 98067TA  22088.91983538  .00579427  00000-0  35739-2 0  9993
2 51279  51.6346   4.4709 0010554 194.2812 165.7891 15.74883308 11003
0 LT-1 O1A
1 51284U 22007A   22089.48356591  .00000566  00000-0  66885-4 0  9997
2 51284  97.8105  97.9726 0001583  82.4839 277.6535 14.88422876  9445
0 CZ-4C R/B
1 51285U 22007B   22088.94041760  .00004121  00000-0  17951-3 0  9997
2 51285  97.8452 100.4534 0123573 174.0892 186.1833 15.16117287  9533
0 CZ-4C DEB
1 51286U 22007C   22063.51359828  .24414238  00000-0  47517+0 0  9998
2 51286  97.7355  71.5330 0043699 146.2255 214.1787 15.38967429  5521
0 ASCENT
1 51287U 21118E   22088.93543186 -.00000056  00000-0  00000-0 0  9997
2 51287   0.2580 104.3187 0001255 319.3469 146.9803  1.01239966   729
0 ELSA-D CLIENT
1 51288U 21022AQ  22088.93332737  .00005693  00000-0  37871-3 0  9990
2 51288  97.5357 350.4837 0019921  53.3526 306.9530 15.07376947  9585
0 COSMOS 1408 DEB
1 51289U 82092BDF 22088.04012460  .00037824  00000-0  15173-2 0  9996
2 51289  82.6135 353.3953 0101145 279.7258  79.2565 15.20138529 11827
0 COSMOS 1408 DEB
1 51290U 82092BDG 22089.45294100  .00064422  00000-0  20076-2 0  9999
2 51290  82.5660 348.7396 0038321   0.1000   0.0242 15.32258021 10608
0 COSMOS 1408 DEB
1 51291U 82092BDH 22089.30080410  .00211966  00000-0  13533-1 0  9997
2 51291  83.6963  20.0389 0193912 344.6991  14.8415 14.93635306 11755
0 COSMOS 1408 DEB
1 51293U 82092BDK 22089.41655004  .02404992  00000-0  91880-2 0  9995
2 51293  82.4462 343.5719 0013057  56.0194 304.2314 15.84424304 12129
0 COSMOS 1408 DEB
1 51294U 82092BDL 22073.24577971  .01298937  00000-0  25127-1 0  9995
2 51294  82.6067   8.5926 0101184  69.1630 292.0416 15.39436479  9590
0 COSMOS 1408 DEB
1 51295U 82092BDM 22088.47337853  .00058981  00000-0  25018-2 0  9992
2 51295  82.6347 353.7767 0085171 301.0551  58.2343 15.19553347 13988
0 COSMOS 1408 DEB
1 51296U 82092BDN 22088.71756669  .00247936  00000-0  52063-2 0  9990
2 51296  82.5853 349.9501 0037372 267.6714  92.0255 15.43704294 10296
0 COSMOS 1408 DEB
1 51298U 82092BDQ 22088.73320065  .00830892  00000-0  13182-1 0  9998
2 51298  82.6073 352.7053 0073746  17.7077 342.6717 15.47728996 10621
0 COSMOS 1408 DEB
1 51299U 82092BDR 22085.75985973  .00355393  00000-0  60707-2 0  9997
2 51299  82.5232 351.9956 0027897 289.7995  70.0248 15.49633463 12648
0 COSMOS 1408 DEB
1 51300U 82092BDS 22088.73184571  .00062129  00000-0  27702-2 0  9996
2 51300  82.4978 351.2210 0088706 310.1554  49.1933 15.17607520 11905
0 COSMOS 1408 DEB
1 51301U 82092BDT 22089.45407509  .00354721  00000-0  75403-2 0  9999
2 51301  82.5402 349.3821 0038231 291.1287  68.5875 15.42929656 12157
0 COSMOS 1408 DEB
1 51302U 82092BDU 22089.42823568  .00061924  00000-0  20957-2 0  9998
2 51302  82.2079 350.7517 0338560 296.0585  60.6143 14.89867570 11770
0 COSMOS 1408 DEB
1 51303U 82092BDV 22063.28822074  .04812229  50119-1  77955-2 0  9999
2 51303  82.5606  11.8335 0019622 143.8555 216.4058 16.07895257  8131
0 COSMOS 1408 DEB
1 51304U 82092BDW 22088.46960039  .00049697  00000-0  16382-2 0  9998
2 51304  82.4906 348.4383 0036787 292.0293  67.7041 15.30574567 11971
0 COSMOS 1408 DEB
1 51305U 82092BDX 22088.98625426  .00009025  00000-0  25032-3 0  9998
2 51305  82.5120 346.4674 0041817 205.8804 154.0349 15.35849744 12106
0 COSMOS 1408 DEB
1 51306U 82092BDY 22075.77977549  .06327656  83413-1  17020-1 0  9993
2 51306  82.5070   1.4529 0013560 252.3086 107.6711 16.00083802 10104
0 COSMOS 1408 DEB
1 51307U 82092BDZ 22089.47936123  .00196980  00000-0  35811-2 0  9996
2 51307  83.1437 359.7927 0035237  14.0614 346.1610 15.48147551 15190
0 COSMOS 1408 DEB
1 51308U 82092BEA 22088.70000771  .00146157  00000-0  48703-2 0  9998
2 51308  82.3842 347.9975 0069974 299.7779  59.6512 15.28161480 12990
0 COSMOS 1408 DEB
1 51309U 82092BEB 22088.76442679  .00019840  00000-0  62054-3 0  9996
2 51309  82.5865 349.1214 0030543  22.5599 337.6978 15.32541942 10713
0 COSMOS 1408 DEB
1 51310U 82092BEC 22088.90887867  .00394263  00000-0  91399-2 0  9994
2 51310  82.5439 351.1391 0055491 296.9783  62.5802 15.39380899 11992
0 COSMOS 1408 DEB
1 51311U 82092BED 22088.43865688  .00788638  24789-3  25566-2 0  9999
2 51311  82.4788 341.0400 0035130  82.3586 278.1674 15.89707708 12275
0 COSMOS 1408 DEB
1 51313U 82092BEF 22088.97219547  .00075937  00000-0  26707-2 0  9993
2 51313  82.5787 350.6121 0048423 306.4473  53.2307 15.27905046 12011
0 COSMOS 1408 DEB
1 51314U 82092BEG 22088.48236563  .02145537  00000-0  20791-1 0  9999
2 51314  82.5366 350.3648 0047174  24.6313 335.7182 15.61786343 11990
0 COSMOS 1408 DEB
1 51315U 82092BEH 22088.96569379  .00034744  00000-0  11324-2 0  9995
2 51315  82.5041 347.6697 0022189 292.4415  67.4475 15.31415512 11900
0 COSMOS 1408 DEB
1 51316U 82092BEJ 22089.50937172  .00070876  00000-0  52132-2 0  9995
2 51316  82.5265 357.9421 0254993  11.2884 349.3898 14.80642705 11736
0 COSMOS 1408 DEB
1 51317U 82092BEK 22088.73088892  .00391825  00000-0  15797-1 0  9991
2 51317  82.1240 348.2106 0194955  24.5637 336.4721 15.07854952 11756
0 COSMOS 1408 DEB
1 51319U 82092BEM 22089.45964700  .00548342  00000-0  97990-2 0  9998
2 51319  82.5832 350.8856 0035661 299.6116  60.1583 15.47419636 11954
0 COSMOS 1408 DEB
1 51320U 82092BEN 22087.20727970  .02179931  00000-0  22285-1 0  9997
2 51320  82.6998 354.9524 0022671  14.8198 345.3719 15.61760864 11790
0 COSMOS 1408 DEB
1 51321U 82092BEP 22089.46529991  .00158290  00000-0  57425-2 0  9999
2 51321  82.5760 353.7095 0175024  20.1886 340.6153 15.14536202 11988
0 COSMOS 1408 DEB
1 51322U 82092BEQ 22088.46285431  .00011955  00000-0  41483-3 0  9991
2 51322  82.7503 354.0398 0094569  24.6498 335.9215 15.25371857 11978
0 COSMOS 1408 DEB
1 51324U 82092BES 22088.93949747  .00143965  00000-0  34037-2 0  9995
2 51324  82.5690 348.4357 0030502  13.2423 346.9616 15.40786863 11944
0 COSMOS 1408 DEB
1 51325U 82092BET 22088.74199591  .00031773  00000-0  18986-2 0  9997
2 51325  82.5474 352.1649 0084626 359.1774   0.9300 15.07909472 10658
0 COSMOS 1408 DEB
1 51326U 82092BEU 22089.44726477  .00105494  00000-0  21362-2 0  9999
2 51326  82.5513 346.1330 0026183  51.7129 308.6469 15.45649461 12259
0 COSMOS 1408 DEB
1 51327U 82092BEV 22088.43935673  .00047753  00000-0  80066-3 0  9998
2 51327  82.5801 346.1202 0043825 107.1343 253.4715 15.50507593 12160
0 COSMOS 1408 DEB
1 51329U 82092BEX 22082.16735837  .08839399 -12514-5  66200-2 0  9999
2 51329  82.5858 351.7531 0020313 201.7428 158.2998 16.14851720 10048
0 COSMOS 1408 DEB
1 51330U 82092BEY 22088.71259289  .00054038  00000-0  21560-2 0  9992
2 51330  82.5992 352.6342 0094833 283.7708  75.2987 15.20811248 12975
0 COSMOS 1408 DEB
1 51333U 82092BFB 22088.77291876  .00859963  00000-0  13028-1 0  9998
2 51333  82.6094 352.1188 0030777 293.1778  66.6233 15.51657903 12006
0 COSMOS 1408 DEB
1 51334U 82092BFC 22088.70421684  .00203582  00000-0  50974-2 0  9996
2 51334  82.3770 346.3488 0039138 303.8393  55.9128 15.38517363 11851
0 COSMOS 1408 DEB
1 51335U 82092BFD 22073.26785697  .02033339  00000-0  92743-2 0  9992
2 51335  82.5581   0.8359 0022642 166.7795 193.4071 15.80412119  9826
0 COSMOS 1408 DEB
1 51336U 82092BFE 22089.40294305  .01355345  00000-0  14700-1 0  9996
2 51336  82.5901 350.6691 0022704 279.5037  80.3654 15.60627883 10927
0 COSMOS 1408 DEB
1 51337U 82092BFF 22088.71772044  .00057569  00000-0  16576-2 0  9991
2 51337  82.6034 349.5857 0015037 320.3195  39.6947 15.35406800 10825
0 COSMOS 1408 DEB
1 51338U 82092BFG 22089.45745915  .00020231  00000-0  10016-2 0  9990
2 51338  82.6283 353.0888 0095528 300.1747  59.0046 15.13659551 10496
